{
  "links" : {
    "next" : "https://api.nasa.gov/neo/rest/v1/feed?start_date=2016-08-09&end_date=2016-08-09&detailed=true&api_key=t0TVs3DtDT2H8Oy2Zy8m2eVrNsAVKAexjcZXUckd",
    "prev" : "https://api.nasa.gov/neo/rest/v1/feed?start_date=2016-08-07&end_date=2016-08-07&detailed=true&api_key=t0TVs3DtDT2H8Oy2Zy8m2eVrNsAVKAexjcZXUckd",
    "self" : "https://api.nasa.gov/neo/rest/v1/feed?start_date=2016-08-08&end_date=2016-08-08&detailed=true&api_key=t0TVs3DtDT2H8Oy2Zy8m2eVrNsAVKAexjcZXUckd"
  },
  "element_count" : 5,
  "near_earth_objects" : {
    "2016-08-08" : [ {
      "links" : {
        "self" : "https://api.nasa.gov/neo/rest/v1/neo/3755345?api_key=t0TVs3DtDT2H8Oy2Zy8m2eVrNsAVKAexjcZXUckd"
      },
      "neo_reference_id" : "3755345",
      "name" : "(2016 NG33)",
      "nasa_jpl_url" : "http://ssd.jpl.nasa.gov/sbdb.cgi?sstr=3755345",
      "absolute_magnitude_h" : 21.5,
      "estimated_diameter" : {
        "kilometers" : {
          "estimated_diameter_min" : 0.1332155667,
          "estimated_diameter_max" : 0.2978790628
        },
        "meters" : {
          "estimated_diameter_min" : 133.2155666981,
          "estimated_diameter_max" : 297.8790627982
        },
        "miles" : {
          "estimated_diameter_min" : 0.0827762899,
          "estimated_diameter_max" : 0.1850934111
        },
        "feet" : {
          "estimated_diameter_min" : 437.0589598459,
          "estimated_diameter_max" : 977.2935443908
        }
      },
      "is_potentially_hazardous_asteroid" : true,
      "close_approach_data" : [ {
        "close_approach_date" : "2016-08-08",
        "epoch_date_close_approach" : 1470639600000,
        "relative_velocity" : {
          "kilometers_per_second" : "14.7544890103",
          "kilometers_per_hour" : "53116.1604369616",
          "miles_per_hour" : "33004.3164670665"
        },
        "miss_distance" : {
          "astronomical" : "0.1208084599",
          "lunar" : "46.9944915771",
          "kilometers" : "18072688",
          "miles" : "11229848"
        },
        "orbiting_body" : "Earth"
      } ],
      "orbital_data" : {
        "orbit_id" : "21",
        "orbit_determination_date" : "2017-07-22 06:20:09",
        "orbit_uncertainty" : "2",
        "minimum_orbit_intersection" : ".0266238",
        "jupiter_tisserand_invariant" : "5.786",
        "epoch_osculation" : "2458000.5",
        "eccentricity" : ".09500120835969413",
        "semi_major_axis" : "1.037463616574977",
        "inclination" : "29.92221234429334",
        "ascending_node_longitude" : "136.7628698018643",
        "orbital_period" : "385.9737234794006",
        "perihelion_distance" : ".9389033193711358",
        "perihelion_argument" : "39.29024990295736",
        "aphelion_distance" : "1.136023913778818",
        "perihelion_time" : "2457847.970954788954",
        "mean_anomaly" : "142.2647525872501",
        "mean_motion" : ".9327059799686419",
        "equinox" : "J2000"
      }
    }, {
      "links" : {
        "self" : "https://api.nasa.gov/neo/rest/v1/neo/3772844?api_key=t0TVs3DtDT2H8Oy2Zy8m2eVrNsAVKAexjcZXUckd"
      },
      "neo_reference_id" : "3772844",
      "name" : "(2017 FR91)",
      "nasa_jpl_url" : "http://ssd.jpl.nasa.gov/sbdb.cgi?sstr=3772844",
      "absolute_magnitude_h" : 26.93,
      "estimated_diameter" : {
        "kilometers" : {
          "estimated_diameter_min" : 0.0109283596,
          "estimated_diameter_max" : 0.0244365549
        },
        "meters" : {
          "estimated_diameter_min" : 10.928359587,
          "estimated_diameter_max" : 24.436554919
        },
        "miles" : {
          "estimated_diameter_min" : 0.0067905657,
          "estimated_diameter_max" : 0.0151841666
        },
        "feet" : {
          "estimated_diameter_min" : 35.8541992673,
          "estimated_diameter_max" : 80.1724268405
        }
      },
      "is_potentially_hazardous_asteroid" : false,
      "close_approach_data" : [ {
        "close_approach_date" : "2016-08-08",
        "epoch_date_close_approach" : 1470639600000,
        "relative_velocity" : {
          "kilometers_per_second" : "14.4990195113",
          "kilometers_per_hour" : "52196.4702405241",
          "miles_per_hour" : "32432.8567447301"
        },
        "miss_distance" : {
          "astronomical" : "0.4034202866",
          "lunar" : "156.9304962158",
          "kilometers" : "60350820",
          "miles" : "37500260"
        },
        "orbiting_body" : "Earth"
      } ],
      "orbital_data" : {
        "orbit_id" : "10",
        "orbit_determination_date" : "2017-07-20 12:28:32",
        "orbit_uncertainty" : "3",
        "minimum_orbit_intersection" : ".000680305",
        "jupiter_tisserand_invariant" : "6.525",
        "epoch_osculation" : "2458000.5",
        "eccentricity" : ".3238728233809041",
        "semi_major_axis" : ".9072840415012338",
        "inclination" : ".2169938080394833",
        "ascending_node_longitude" : "199.7523792031614",
        "orbital_period" : "315.6554810846757",
        "perihelion_distance" : ".6134393973717919",
        "perihelion_argument" : "114.5060811797126",
        "aphelion_distance" : "1.201128685630676",
        "perihelion_time" : "2457922.205416019053",
        "mean_anomaly" : "89.29371394498312",
        "mean_motion" : "1.14048391861578",
        "equinox" : "J2000"
      }
    } ]
  }
}